NOAA 19                 
1 33591U 09005A   23040.20238056  .00000308  00000+0  19111-3 0  9996
2 33591  99.1195  83.9757 0013109 240.9249 119.0610 14.12683145721878
